TEVEL2-8                
1 63239U 25052AF  26068.66815442  .00019130  00000+0  69304-3 0  9993
2 63239  97.4055 324.2923 0008031 124.9191 235.2804 15.28392908 54807
STARLINK-34359          
1 64280U 25120AA  26068.82049448  .00021923  00000+0  75014-3 0  9997
2 64280  53.1573 116.2561 0001457  65.7146 294.4007 15.30200014 43935
